[{"OBJECT_NAME":"STARLINK-5764","OBJECT_ID":"2023-020AK","EPOCH":"2026-03-08T05:18:37.359072","MEAN_MOTION":15.02595794,"ECCENTRICITY":0.00010779,"INCLINATION":43.0041,"RA_OF_ASC_NODE":0.0348,"ARG_OF_PERICENTER":296.8029,"MEAN_ANOMALY":63.2703,"EPHEMERIS_TYPE":0,"CLASSIFICATION_TYPE":"U","NORAD_CAT_ID":55602,"ELEMENT_SET_NO":999,"REV_AT_EPOCH":16884,"BSTAR":0.00046910374,"MEAN_MOTION_DOT":6.149e-5,"MEAN_MOTION_DDOT":0},{"OBJECT_NAME":"NOAA 16 DEB","OBJECT_ID":"2000-055BZ","EPOCH":"2026-03-09T09:57:46.840608","MEAN_MOTION":15.04968987,"ECCENTRICITY":0.00133628,"INCLINATION":98.8453,"RA_OF_ASC_NODE":286.076,"ARG_OF_PERICENTER":194.204,"MEAN_ANOMALY":165.8809,"EPHEMERIS_TYPE":0,"CLASSIFICATION_TYPE":"U","NORAD_CAT_ID":41142,"ELEMENT_SET_NO":999,"REV_AT_EPOCH":53866,"BSTAR":0.0051237154,"MEAN_MOTION_DOT":0.00073426,"MEAN_MOTION_DDOT":0}]
